start=new Date('2023-04-30T00:00:00.000Z').valueOf();
sats=[{"MEAN_ELEMENT_THEORY":"SGP4","TLE_LINE2":"2 47583  53.0541  35.7239 0001292  70.3778 289.7351 15.06437256123192","TIME_SYSTEM":"UTC","APOAPSIS":"547.994","OBJECT_NAME":"STARLINK-1987","LAUNCH_DATE":"2021-02-04","CENTER_NAME":"EARTH","PERIAPSIS":"546.205","SITE":"AFETR","PERIOD":"95.590","ECCENTRICITY":"0.00012920","COUNTRY_CODE":"US","ELEMENT_SET_NO":"999","DECAY_DATE":null,"EPOCH":"2023-04-29T00:56:48.078240","TLE_LINE1":"1 47583U 21009AM  23119.03944535  .00027300  00000-0  18427-2 0  9994","RCS_SIZE":"LARGE","BSTAR":"0.00184270000000","EPHEMERIS_TYPE":"0","OBJECT_ID":"2021-009AM","ARG_OF_PERICENTER":"70.3778","NORAD_CAT_ID":"47583","INCLINATION":"53.0541","MEAN_MOTION_DDOT":"0.0000000000000","REV_AT_EPOCH":"12319","RA_OF_ASC_NODE":"35.7239","MEAN_MOTION":"15.06437256","MEAN_ANOMALY":"289.7351","CLASSIFICATION_TYPE":"U","GP_ID":"230927675","SEMIMAJOR_AXIS":"6925.234","FILE":"3896517","OBJECT_TYPE":"PAYLOAD","MEAN_MOTION_DOT":"0.00027300","REF_FRAME":"TEME"},{"MEAN_MOTION_DOT":"0.00022038","REF_FRAME":"TEME","FILE":"3896517","OBJECT_TYPE":"PAYLOAD","SEMIMAJOR_AXIS":"6925.259","GP_ID":"230927425","CLASSIFICATION_TYPE":"U","MEAN_ANOMALY":"245.6541","MEAN_MOTION":"15.06429316","RA_OF_ASC_NODE":"35.3095","REV_AT_EPOCH":"12320","MEAN_MOTION_DDOT":"0.0000000000000","INCLINATION":"53.0571","NORAD_CAT_ID":"47585","ARG_OF_PERICENTER":"114.4600","OBJECT_ID":"2021-009AP","EPHEMERIS_TYPE":"0","BSTAR":"0.00149260000000","RCS_SIZE":"LARGE","TLE_LINE1":"1 47585U 21009AP  23119.13158898  .00022038  00000-0  14926-2 0  9999","EPOCH":"2023-04-29T03:09:29.287872","DECAY_DATE":null,"ELEMENT_SET_NO":"999","COUNTRY_CODE":"US","ECCENTRICITY":"0.00014570","PERIOD":"95.590","SITE":"AFETR","PERIAPSIS":"546.115","CENTER_NAME":"EARTH","LAUNCH_DATE":"2021-02-04","APOAPSIS":"548.133","OBJECT_NAME":"STARLINK-1989","TLE_LINE2":"2 47585  53.0571  35.3095 0001457 114.4600 245.6541 15.06429316123202","TIME_SYSTEM":"UTC","MEAN_ELEMENT_THEORY":"SGP4"},{"FILE":"3896517","OBJECT_TYPE":"PAYLOAD","REF_FRAME":"TEME","MEAN_MOTION_DOT":"0.00018824","GP_ID":"230928176","SEMIMAJOR_AXIS":"6925.204","MEAN_ANOMALY":"263.4962","CLASSIFICATION_TYPE":"U","MEAN_MOTION":"15.06447161","RA_OF_ASC_NODE":"55.0822","MEAN_MOTION_DDOT":"0.0000000000000","REV_AT_EPOCH":"12293","NORAD_CAT_ID":"47586","INCLINATION":"53.0552","ARG_OF_PERICENTER":"96.6207","EPHEMERIS_TYPE":"0","OBJECT_ID":"2021-009AQ","RCS_SIZE":"LARGE","BSTAR":"0.00127760000000","TLE_LINE1":"1 47586U 21009AQ  23119.18135523  .00018824  00000-0  12776-2 0  9994","EPOCH":"2023-04-29T04:21:09.091872","DECAY_DATE":null,"ELEMENT_SET_NO":"999","COUNTRY_CODE":"US","PERIOD":"95.589","ECCENTRICITY":"0.00015870","SITE":"AFETR","PERIAPSIS":"545.970","CENTER_NAME":"EARTH","LAUNCH_DATE":"2021-02-04","TLE_LINE2":"2 47586  53.0552  55.0822 0001587  96.6207 263.4962 15.06447161122939","TIME_SYSTEM":"UTC","OBJECT_NAME":"STARLINK-1990","APOAPSIS":"548.168","MEAN_ELEMENT_THEORY":"SGP4"},{"BSTAR":"0.00138380000000","RCS_SIZE":"LARGE","TLE_LINE1":"1 47587U 21009AR  23119.11039698  .00020399  00000-0  13838-2 0  9994","ARG_OF_PERICENTER":"97.4170","OBJECT_ID":"2021-009AR","EPHEMERIS_TYPE":"0","MEAN_MOTION":"15.06416503","RA_OF_ASC_NODE":"25.4076","REV_AT_EPOCH":"12334","MEAN_MOTION_DDOT":"0.0000000000000","INCLINATION":"53.0551","NORAD_CAT_ID":"47587","MEAN_MOTION_DOT":"0.00020399","REF_FRAME":"TEME","FILE":"3896517","OBJECT_TYPE":"PAYLOAD","SEMIMAJOR_AXIS":"6925.298","GP_ID":"230927156","CLASSIFICATION_TYPE":"U","MEAN_ANOMALY":"262.6971","CENTER_NAME":"EARTH","LAUNCH_DATE":"2021-02-04","APOAPSIS":"548.089","OBJECT_NAME":"STARLINK-1991","TLE_LINE2":"2 47587  53.0551  25.4076 0001337  97.4170 262.6971 15.06416503123345","TIME_SYSTEM":"UTC","MEAN_ELEMENT_THEORY":"SGP4","ECCENTRICITY":"0.00013370","PERIOD":"95.591","SITE":"AFETR","PERIAPSIS":"546.237","ELEMENT_SET_NO":"999","COUNTRY_CODE":"US","EPOCH":"2023-04-29T02:38:58.299072","DECAY_DATE":null},{"EPHEMERIS_TYPE":"0","OBJECT_ID":"2021-009AS","ARG_OF_PERICENTER":"91.5657","TLE_LINE1":"1 47588U 21009AS  23119.03576266  .00026065  00000-0  17603-2 0  9993","RCS_SIZE":"LARGE","BSTAR":"0.00176030000000","MEAN_ANOMALY":"268.5471","CLASSIFICATION_TYPE":"U","GP_ID":"230927175","SEMIMAJOR_AXIS":"6925.219","FILE":"3896517","OBJECT_TYPE":"PAYLOAD","MEAN_MOTION_DOT":"0.00026065","REF_FRAME":"TEME","NORAD_CAT_ID":"47588","INCLINATION":"53.0546","MEAN_MOTION_DDOT":"0.0000000000000","REV_AT_EPOCH":"12319","RA_OF_ASC_NODE":"35.7472","MEAN_MOTION":"15.06442293","PERIAPSIS":"546.244","SITE":"AFETR","PERIOD":"95.589","ECCENTRICITY":"0.00012130","MEAN_ELEMENT_THEORY":"SGP4","TIME_SYSTEM":"UTC","TLE_LINE2":"2 47588  53.0546  35.7472 0001213  91.5657 268.5471 15.06442293123190","APOAPSIS":"547.924","OBJECT_NAME":"STARLINK-1993","LAUNCH_DATE":"2021-02-04","CENTER_NAME":"EARTH","DECAY_DATE":null,"EPOCH":"2023-04-29T00:51:29.893824","COUNTRY_CODE":"US","ELEMENT_SET_NO":"999"},{"BSTAR":"0.00125900000000","RCS_SIZE":"LARGE","TLE_LINE1":"1 47589U 21009AT  23119.78401150  .00018526  00000-0  12590-2 0  9998","ARG_OF_PERICENTER":"65.1675","OBJECT_ID":"2021-009AT","EPHEMERIS_TYPE":"0","MEAN_MOTION":"15.06410857","RA_OF_ASC_NODE":"32.3819","REV_AT_EPOCH":"12390","MEAN_MOTION_DDOT":"0.0000000000000","INCLINATION":"53.0553","NORAD_CAT_ID":"47589","REF_FRAME":"TEME","MEAN_MOTION_DOT":"0.00018526","OBJECT_TYPE":"PAYLOAD","FILE":"3896696","SEMIMAJOR_AXIS":"6925.315","GP_ID":"230937452","CLASSIFICATION_TYPE":"U","MEAN_ANOMALY":"294.9388","CENTER_NAME":"EARTH","LAUNCH_DATE":"2021-02-04","OBJECT_NAME":"STARLINK-1994","APOAPSIS":"547.671","TLE_LINE2":"2 47589  53.0553  32.3819 0000709  65.1675 294.9388 15.06410857123903","TIME_SYSTEM":"UTC","MEAN_ELEMENT_THEORY":"SGP4","ECCENTRICITY":"0.00007090","PERIOD":"95.591","SITE":"AFETR","PERIAPSIS":"546.689","ELEMENT_SET_NO":"999","COUNTRY_CODE":"US","EPOCH":"2023-04-29T18:48:58.593600","DECAY_DATE":null},{"RCS_SIZE":"LARGE","BSTAR":"0.00026266000000","TLE_LINE1":"1 47590U 21009AU  23119.84114579  .00003632  00000-0  26266-3 0  9991","ARG_OF_PERICENTER":"89.1367","EPHEMERIS_TYPE":"0","OBJECT_ID":"2021-009AU","RA_OF_ASC_NODE":"52.1223","MEAN_MOTION":"15.06397115","MEAN_MOTION_DDOT":"0.0000000000000","REV_AT_EPOCH":"12363","NORAD_CAT_ID":"47590","INCLINATION":"53.0532","OBJECT_TYPE":"PAYLOAD","FILE":"3896696","MEAN_MOTION_DOT":"0.00003632","REF_FRAME":"TEME","GP_ID":"230936954","SEMIMAJOR_AXIS":"6925.357","MEAN_ANOMALY":"270.9912","CLASSIFICATION_TYPE":"U","CENTER_NAME":"EARTH","LAUNCH_DATE":"2021-02-04","TLE_LINE2":"2 47590  53.0532  52.1223 0002535  89.1367 270.9912 15.06397115123632","TIME_SYSTEM":"UTC","OBJECT_NAME":"STARLINK-1995","APOAPSIS":"548.978","MEAN_ELEMENT_THEORY":"SGP4","PERIOD":"95.592","ECCENTRICITY":"0.00025350","SITE":"AFETR","PERIAPSIS":"545.467","ELEMENT_SET_NO":"999","COUNTRY_CODE":"US","EPOCH":"2023-04-29T20:11:14.996256","DECAY_DATE":null},{"MEAN_MOTION_DDOT":"0.0000000000000","REV_AT_EPOCH":"12390","RA_OF_ASC_NODE":"32.3930","MEAN_MOTION":"15.06391232","NORAD_CAT_ID":"47591","INCLINATION":"53.0549","GP_ID":"230937447","SEMIMAJOR_AXIS":"6925.375","FILE":"3896696","OBJECT_TYPE":"PAYLOAD","REF_FRAME":"TEME","MEAN_MOTION_DOT":"-0.00002011","MEAN_ANOMALY":"270.9448","CLASSIFICATION_TYPE":"U","RCS_SIZE":"LARGE","BSTAR":"-0.00011619000000","TLE_LINE1":"1 47591U 21009AV  23119.78033665 -.00002011  00000-0 -11619-3 0  9999","ARG_OF_PERICENTER":"89.1679","OBJECT_ID":"2021-009AV","EPHEMERIS_TYPE":"0","ELEMENT_SET_NO":"999","COUNTRY_CODE":"US","EPOCH":"2023-04-29T18:43:41.086560","DECAY_DATE":null,"LAUNCH_DATE":"2021-02-04","CENTER_NAME":"EARTH","MEAN_ELEMENT_THEORY":"SGP4","TLE_LINE2":"2 47591  53.0549  32.3930 0001205  89.1679 270.9448 15.06391232123903","TIME_SYSTEM":"UTC","OBJECT_NAME":"STARLINK-1996","APOAPSIS":"548.075","SITE":"AFETR","PERIOD":"95.593","ECCENTRICITY":"0.00012050","PERIAPSIS":"546.406"},{"EPHEMERIS_TYPE":"0","OBJECT_ID":"2021-009AW","ARG_OF_PERICENTER":"110.4532","TLE_LINE1":"1 47592U 21009AW  23119.21452504  .00021845  00000-0  14789-2 0  9999","RCS_SIZE":"LARGE","BSTAR":"0.00147890000000","MEAN_ANOMALY":"249.6589","CLASSIFICATION_TYPE":"U","OBJECT_TYPE":"PAYLOAD","FILE":"3896517","MEAN_MOTION_DOT":"0.00021845","REF_FRAME":"TEME","GP_ID":"230927676","SEMIMAJOR_AXIS":"6925.196","NORAD_CAT_ID":"47592","INCLINATION":"53.0552","MEAN_MOTION":"15.06449830","RA_OF_ASC_NODE":"54.9366","MEAN_MOTION_DDOT":"0.0000000000000","REV_AT_EPOCH":"12293","PERIAPSIS":"546.212","PERIOD":"95.589","ECCENTRICITY":"0.00012260","SITE":"AFETR","TLE_LINE2":"2 47592  53.0552  54.9366 0001226 110.4532 249.6589 15.06449830122939","TIME_SYSTEM":"UTC","OBJECT_NAME":"STARLINK-1997","APOAPSIS":"547.910","MEAN_ELEMENT_THEORY":"SGP4","CENTER_NAME":"EARTH","LAUNCH_DATE":"2021-02-04","DECAY_DATE":null,"EPOCH":"2023-04-29T05:08:54.963456","COUNTRY_CODE":"US","ELEMENT_SET_NO":"999"},{"MEAN_MOTION":"15.06398621","RA_OF_ASC_NODE":"52.0958","MEAN_MOTION_DDOT":"0.0000000000000","REV_AT_EPOCH":"12363","NORAD_CAT_ID":"47593","INCLINATION":"53.0549","FILE":"3896696","OBJECT_TYPE":"PAYLOAD","REF_FRAME":"TEME","MEAN_MOTION_DOT":"0.00013746","GP_ID":"230937441","SEMIMAJOR_AXIS":"6925.353","MEAN_ANOMALY":"246.8092","CLASSIFICATION_TYPE":"U","RCS_SIZE":"LARGE","BSTAR":"0.00093991000000","TLE_LINE1":"1 47593U 21009AX  23119.84852423  .00013746  00000-0  93991-3 0  9997","ARG_OF_PERICENTER":"113.3055","EPHEMERIS_TYPE":"0","OBJECT_ID":"2021-009AX","ELEMENT_SET_NO":"999","COUNTRY_CODE":"US","EPOCH":"2023-04-29T20:21:52.493472","DECAY_DATE":null,"CENTER_NAME":"EARTH","LAUNCH_DATE":"2021-02-04","TLE_LINE2":"2 47593  53.0549  52.0958 0001497 113.3055 246.8092 15.06398621123631","TIME_SYSTEM":"UTC","OBJECT_NAME":"STARLINK-1998","APOAPSIS":"548.255","MEAN_ELEMENT_THEORY":"SGP4","PERIOD":"95.592","ECCENTRICITY":"0.00014970","SITE":"AFETR","PERIAPSIS":"546.181"}];
